start=new Date('2023-06-26T00:00:00.000Z').valueOf();
sats=[{"TLE_LINE2":"2 47729  53.0530 265.3733 0001115  87.5734 272.5382 15.06392053128990","OBJECT_TYPE":"PAYLOAD","APOAPSIS":"548.010","EPOCH":"2023-06-24T23:11:47.054976","MEAN_ELEMENT_THEORY":"SGP4","COUNTRY_CODE":"US","ECCENTRICITY":"0.00011150","SITE":"AFETR","MEAN_MOTION":"15.06392053","EPHEMERIS_TYPE":"0","CENTER_NAME":"EARTH","MEAN_MOTION_DOT":"0.00026183","REF_FRAME":"TEME","PERIOD":"95.593","CLASSIFICATION_TYPE":"U","RCS_SIZE":"LARGE","OBJECT_NAME":"STARLINK-2132","REV_AT_EPOCH":"12899","INCLINATION":"53.0530","BSTAR":"0.00177050000000","DECAY_DATE":null,"PERIAPSIS":"546.466","ARG_OF_PERICENTER":"87.5734","LAUNCH_DATE":"2021-03-04","MEAN_ANOMALY":"272.5382","ELEMENT_SET_NO":"999","MEAN_MOTION_DDOT":"0.0000000000000","RA_OF_ASC_NODE":"265.3733","NORAD_CAT_ID":"47729","GP_ID":"234536571","TLE_LINE1":"1 47729U 21017H   23175.96651684  .00026183  00000-0  17705-2 0  9995","OBJECT_ID":"2021-017H","FILE":"3942100","SEMIMAJOR_AXIS":"6925.373","TIME_SYSTEM":"UTC"},{"MEAN_ELEMENT_THEORY":"SGP4","EPOCH":"2023-06-24T16:40:18.538464","OBJECT_TYPE":"PAYLOAD","TLE_LINE2":"2 47730  53.0538 336.4036 0001144  85.2332 274.8788 15.06385740127963","APOAPSIS":"548.050","CENTER_NAME":"EARTH","PERIOD":"95.593","MEAN_MOTION_DOT":"0.00022721","REF_FRAME":"TEME","SITE":"AFETR","ECCENTRICITY":"0.00011440","COUNTRY_CODE":"US","EPHEMERIS_TYPE":"0","MEAN_MOTION":"15.06385740","RCS_SIZE":"LARGE","CLASSIFICATION_TYPE":"U","INCLINATION":"53.0538","BSTAR":"0.00153990000000","REV_AT_EPOCH":"12796","OBJECT_NAME":"STARLINK-2140","MEAN_ANOMALY":"274.8788","ARG_OF_PERICENTER":"85.2332","DECAY_DATE":null,"PERIAPSIS":"546.465","LAUNCH_DATE":"2021-03-04","RA_OF_ASC_NODE":"336.4036","ELEMENT_SET_NO":"999","MEAN_MOTION_DDOT":"0.0000000000000","TLE_LINE1":"1 47730U 21017J   23175.69465901  .00022721  00000-0  15399-2 0  9993","GP_ID":"234529382","NORAD_CAT_ID":"47730","SEMIMAJOR_AXIS":"6925.392","TIME_SYSTEM":"UTC","OBJECT_ID":"2021-017J","FILE":"3941791"},{"CLASSIFICATION_TYPE":"U","RCS_SIZE":"LARGE","OBJECT_NAME":"STARLINK-2141","REV_AT_EPOCH":"12803","BSTAR":"0.00171390000000","INCLINATION":"53.0552","TLE_LINE2":"2 47731  53.0552 331.3614 0001108  74.0216 286.0894 15.06389422128036","OBJECT_TYPE":"PAYLOAD","APOAPSIS":"548.013","EPOCH":"2023-06-24T16:48:55.871424","MEAN_ELEMENT_THEORY":"SGP4","COUNTRY_CODE":"US","SITE":"AFETR","ECCENTRICITY":"0.00011080","MEAN_MOTION":"15.06389422","EPHEMERIS_TYPE":"0","CENTER_NAME":"EARTH","MEAN_MOTION_DOT":"0.00025332","REF_FRAME":"TEME","PERIOD":"95.593","GP_ID":"234529379","NORAD_CAT_ID":"47731","TLE_LINE1":"1 47731U 21017K   23175.70064666  .00025332  00000-0  17139-2 0  9994","OBJECT_ID":"2021-017K","FILE":"3941791","SEMIMAJOR_AXIS":"6925.381","TIME_SYSTEM":"UTC","PERIAPSIS":"546.479","DECAY_DATE":null,"ARG_OF_PERICENTER":"74.0216","LAUNCH_DATE":"2021-03-04","MEAN_ANOMALY":"286.0894","ELEMENT_SET_NO":"999","MEAN_MOTION_DDOT":"0.0000000000000","RA_OF_ASC_NODE":"331.3614"},{"SEMIMAJOR_AXIS":"6925.255","TIME_SYSTEM":"UTC","OBJECT_ID":"2021-017L","FILE":"3942388","TLE_LINE1":"1 47732U 21017L   23176.40329660  .00025285  00000-0  17089-2 0  9992","NORAD_CAT_ID":"47732","GP_ID":"234542859","RA_OF_ASC_NODE":"243.4503","ELEMENT_SET_NO":"999","MEAN_MOTION_DDOT":"0.0000000000000","MEAN_ANOMALY":"274.5215","DECAY_DATE":null,"PERIAPSIS":"546.316","ARG_OF_PERICENTER":"85.5907","LAUNCH_DATE":"2021-03-04","BSTAR":"0.00170890000000","INCLINATION":"53.0538","OBJECT_NAME":"STARLINK-2142","REV_AT_EPOCH":"12932","RCS_SIZE":"LARGE","CLASSIFICATION_TYPE":"U","CENTER_NAME":"EARTH","REF_FRAME":"TEME","MEAN_MOTION_DOT":"0.00025285","PERIOD":"95.590","COUNTRY_CODE":"US","ECCENTRICITY":"0.00011620","SITE":"AFETR","MEAN_MOTION":"15.06430422","EPHEMERIS_TYPE":"0","EPOCH":"2023-06-25T09:40:44.826240","MEAN_ELEMENT_THEORY":"SGP4","OBJECT_TYPE":"PAYLOAD","TLE_LINE2":"2 47732  53.0538 243.4503 0001162  85.5907 274.5215 15.06430422129324","APOAPSIS":"547.925"},{"MEAN_MOTION_DDOT":"0.0000000000000","ELEMENT_SET_NO":"999","RA_OF_ASC_NODE":"336.6547","LAUNCH_DATE":"2021-03-04","ARG_OF_PERICENTER":"82.1777","PERIAPSIS":"546.238","DECAY_DATE":null,"MEAN_ANOMALY":"277.9353","FILE":"3942662","OBJECT_ID":"2021-017M","TIME_SYSTEM":"UTC","SEMIMAJOR_AXIS":"6925.232","GP_ID":"234550182","NORAD_CAT_ID":"47733","TLE_LINE1":"1 47733U 21017M   23176.75020479  .00027233  00000-0  18382-2 0  9999","EPHEMERIS_TYPE":"0","MEAN_MOTION":"15.06437916","ECCENTRICITY":"0.00012410","SITE":"AFETR","COUNTRY_CODE":"US","PERIOD":"95.590","MEAN_MOTION_DOT":"0.00027233","REF_FRAME":"TEME","CENTER_NAME":"EARTH","APOAPSIS":"547.957","OBJECT_TYPE":"PAYLOAD","TLE_LINE2":"2 47733  53.0555 336.6547 0001241  82.1777 277.9353 15.06437916128057","MEAN_ELEMENT_THEORY":"SGP4","EPOCH":"2023-06-25T18:00:17.693856","REV_AT_EPOCH":"12805","OBJECT_NAME":"STARLINK-2143","INCLINATION":"53.0555","BSTAR":"0.00183820000000","CLASSIFICATION_TYPE":"U","RCS_SIZE":"LARGE"},{"TLE_LINE2":"2 47734  53.0555 331.3286 0000991  70.0083 290.1012 15.06383780128033","OBJECT_TYPE":"PAYLOAD","APOAPSIS":"547.950","MEAN_ELEMENT_THEORY":"SGP4","EPOCH":"2023-06-24T16:59:32.694720","ECCENTRICITY":"0.00009910","SITE":"AFETR","COUNTRY_CODE":"US","EPHEMERIS_TYPE":"0","MEAN_MOTION":"15.06383780","CENTER_NAME":"EARTH","PERIOD":"95.593","MEAN_MOTION_DOT":"0.00022679","REF_FRAME":"TEME","CLASSIFICATION_TYPE":"U","RCS_SIZE":"LARGE","REV_AT_EPOCH":"12803","OBJECT_NAME":"STARLINK-2144","BSTAR":"0.00153720000000","INCLINATION":"53.0555","ARG_OF_PERICENTER":"70.0083","DECAY_DATE":null,"PERIAPSIS":"546.577","LAUNCH_DATE":"2021-03-04","MEAN_ANOMALY":"290.1012","ELEMENT_SET_NO":"999","MEAN_MOTION_DDOT":"0.0000000000000","RA_OF_ASC_NODE":"331.3286","GP_ID":"234529392","NORAD_CAT_ID":"47734","TLE_LINE1":"1 47734U 21017N   23175.70801730  .00022679  00000-0  15372-2 0  9996","OBJECT_ID":"2021-017N","FILE":"3941798","SEMIMAJOR_AXIS":"6925.398","TIME_SYSTEM":"UTC"},{"OBJECT_NAME":"STARLINK-2146","REV_AT_EPOCH":"12918","INCLINATION":"53.0536","BSTAR":"0.00178250000000","CLASSIFICATION_TYPE":"U","RCS_SIZE":"LARGE","MEAN_MOTION":"15.06436049","EPHEMERIS_TYPE":"0","COUNTRY_CODE":"US","ECCENTRICITY":"0.00011640","SITE":"AFETR","REF_FRAME":"TEME","MEAN_MOTION_DOT":"0.00026394","PERIOD":"95.590","CENTER_NAME":"EARTH","APOAPSIS":"547.909","TLE_LINE2":"2 47735  53.0536 253.4443 0001164  96.7418 263.3703 15.06436049129185","OBJECT_TYPE":"PAYLOAD","EPOCH":"2023-06-25T09:18:10.691136","MEAN_ELEMENT_THEORY":"SGP4","FILE":"3942389","OBJECT_ID":"2021-017P","TIME_SYSTEM":"UTC","SEMIMAJOR_AXIS":"6925.238","GP_ID":"234543375","NORAD_CAT_ID":"47735","TLE_LINE1":"1 47735U 21017P   23176.38762374  .00026394  00000-0  17825-2 0  9995","MEAN_MOTION_DDOT":"0.0000000000000","ELEMENT_SET_NO":"999","RA_OF_ASC_NODE":"253.4443","LAUNCH_DATE":"2021-03-04","DECAY_DATE":null,"PERIAPSIS":"546.297","ARG_OF_PERICENTER":"96.7418","MEAN_ANOMALY":"263.3703"},{"RA_OF_ASC_NODE":"321.4740","MEAN_MOTION_DDOT":"0.0000000000000","ELEMENT_SET_NO":"999","MEAN_ANOMALY":"271.2377","LAUNCH_DATE":"2021-03-04","ARG_OF_PERICENTER":"88.8731","PERIAPSIS":"546.532","DECAY_DATE":null,"TIME_SYSTEM":"UTC","SEMIMAJOR_AXIS":"6925.387","FILE":"3941799","OBJECT_ID":"2021-017Q","TLE_LINE1":"1 47736U 21017Q   23175.67576258  .00023707  00000-0  16056-2 0  9991","GP_ID":"234528906","NORAD_CAT_ID":"47736","PERIOD":"95.593","MEAN_MOTION_DOT":"0.00023707","REF_FRAME":"TEME","CENTER_NAME":"EARTH","EPHEMERIS_TYPE":"0","MEAN_MOTION":"15.06387446","SITE":"AFETR","ECCENTRICITY":"0.00010390","COUNTRY_CODE":"US","MEAN_ELEMENT_THEORY":"SGP4","EPOCH":"2023-06-24T16:13:05.886912","APOAPSIS":"547.972","OBJECT_TYPE":"PAYLOAD","TLE_LINE2":"2 47736  53.0550 321.4740 0001039  88.8731 271.2377 15.06387446128178","BSTAR":"0.00160560000000","INCLINATION":"53.0550","REV_AT_EPOCH":"12817","OBJECT_NAME":"STARLINK-2147","RCS_SIZE":"LARGE","CLASSIFICATION_TYPE":"U"},{"FILE":"3942666","OBJECT_ID":"2021-017R","TIME_SYSTEM":"UTC","SEMIMAJOR_AXIS":"6836.845","GP_ID":"234549693","NORAD_CAT_ID":"47737","TLE_LINE1":"1 47737U 21017R   23176.65956808 -.00000351  00000-0  87628-6 0  9992","MEAN_MOTION_DDOT":"0.0000000000000","ELEMENT_SET_NO":"999","RA_OF_ASC_NODE":"161.1635","LAUNCH_DATE":"2021-03-04","PERIAPSIS":"457.947","DECAY_DATE":null,"ARG_OF_PERICENTER":"91.0839","MEAN_ANOMALY":"269.0291","OBJECT_NAME":"STARLINK-2148","REV_AT_EPOCH":"13052","BSTAR":"0.00000087628000","INCLINATION":"53.0527","CLASSIFICATION_TYPE":"U","RCS_SIZE":"LARGE","MEAN_MOTION":"15.35745039","EPHEMERIS_TYPE":"0","COUNTRY_CODE":"US","ECCENTRICITY":"0.00011170","SITE":"AFETR","MEAN_MOTION_DOT":"-0.00000351","REF_FRAME":"TEME","PERIOD":"93.766","CENTER_NAME":"EARTH","APOAPSIS":"459.474","TLE_LINE2":"2 47737  53.0527 161.1635 0001117  91.0839 269.0291 15.35745039130527","OBJECT_TYPE":"PAYLOAD","EPOCH":"2023-06-25T15:49:46.682112","MEAN_ELEMENT_THEORY":"SGP4"},{"GP_ID":"234529413","NORAD_CAT_ID":"47738","TLE_LINE1":"1 47738U 21017S   23175.65000119  .00022681  00000-0  15371-2 0  9998","FILE":"3941800","OBJECT_ID":"2021-017S","TIME_SYSTEM":"UTC","SEMIMAJOR_AXIS":"6925.383","LAUNCH_DATE":"2021-03-04","DECAY_DATE":null,"PERIAPSIS":"546.434","ARG_OF_PERICENTER":"79.9796","MEAN_ANOMALY":"280.1326","MEAN_MOTION_DDOT":"0.0000000000000","ELEMENT_SET_NO":"999","RA_OF_ASC_NODE":"321.8647","CLASSIFICATION_TYPE":"U","RCS_SIZE":"LARGE","OBJECT_NAME":"STARLINK-2149","REV_AT_EPOCH":"12816","INCLINATION":"53.0539","BSTAR":"0.00153710000000","APOAPSIS":"548.062","OBJECT_TYPE":"PAYLOAD","TLE_LINE2":"2 47738  53.0539 321.8647 0001175  79.9796 280.1326 15.06388688128161","EPOCH":"2023-06-24T15:36:00.102816","MEAN_ELEMENT_THEORY":"SGP4","MEAN_MOTION":"15.06388688","EPHEMERIS_TYPE":"0","COUNTRY_CODE":"US","ECCENTRICITY":"0.00011750","SITE":"AFETR","MEAN_MOTION_DOT":"0.00022681","REF_FRAME":"TEME","PERIOD":"95.593","CENTER_NAME":"EARTH"}];
